{"type": "FeatureCollection", "features": [ {"type": "Feature", "properties": {"norad_id": 33841, "name": "COSMOS 2251 DEB", "group": "cosmos-2251-debris", "lat": -5.193326426997366, "lon": -93.67281778247131, "alt_km": 754.111773946911, "timestamp": "2025-12-18T07:01:54.982307+00:00", "meta": {"OBJECT_NAME": "COSMOS 2251 DEB", "OBJECT_ID": "1993-036CJ", "EPOCH": "2025-12-17T21:20:46.158432", "MEAN_MOTION": 14.37868176, "ECCENTRICITY": 0.0020758, "INCLINATION": 74.0378, "RA_OF_ASC_NODE": 268.5606, "ARG_OF_PERICENTER": 347.9922, "MEAN_ANOMALY": 78.4993, "EPHEMERIS_TYPE": 0, "CLASSIFICATION_TYPE": "U", "NORAD_CAT_ID": 33841, "ELEMENT_SET_NO": 999, "REV_AT_EPOCH": 88188, "BSTAR": 0.00018581332, "MEAN_MOTION_DOT": 5.35e-06, "MEAN_MOTION_DDOT": 0}, "tle": {"line1": "1 33841U 93036CJ  25351.88942313  .00000535  00000+0  18581-3 0  9992", "line2": "2 33841  74.0378 268.5606 0020758 347.9922  78.4993 14.37868176881885"}}, "geometry": {"type": "Point", "coordinates": [-93.67281778247131, -5.193326426997366]}}, {"type": "Feature", "properties": {"norad_id": 33842, "name": "COSMOS 2251 DEB", "group": "cosmos-2251-debris", "lat": -13.242851280626107, "lon": -154.51929712711768, "alt_km": 724.6457386063366, "timestamp": "2025-12-18T07:01:54.982317+00:00", "meta": {"OBJECT_NAME": "COSMOS 2251 DEB", "OBJECT_ID": "1993-036CK", "EPOCH": "2025-12-17T21:06:35.819136", "MEAN_MOTION": 14.42707639, "ECCENTRICITY": 0.00474343, "INCLINATION": 74.0322, "RA_OF_ASC_NODE": 210.1115, "ARG_OF_PERICENTER": 316.4051, "MEAN_ANOMALY": 43.336, "EPHEMERIS_TYPE": 0, "CLASSIFICATION_TYPE": "U", "NORAD_CAT_ID": 33842, "ELEMENT_SET_NO": 999, "REV_AT_EPOCH": 88411, "BSTAR": 0.0002313081, "MEAN_MOTION_DOT": 7.53e-06, "MEAN_MOTION_DDOT": 0}, "tle": {"line1": "1 33842U 93036CK  25351.87958124  .00000753  00000+0  23131-3 0  9998", "line2": "2 33842  74.0322 210.1115 0047434 316.4051  43.3360 14.42707639884117"}}, "geometry": {"type": "Point", "coordinates": [-154.51929712711768, -13.242851280626107]}}, {"type": "Feature", "properties": {"norad_id": 33844, "name": "COSMOS 2251 DEB", "group": "cosmos-2251-debris", "lat": 72.41217554634856, "lon": 158.32464464351224, "alt_km": 744.240942115076, "timestamp": "2025-12-18T07:01:54.982328+00:00", "meta": {"OBJECT_NAME": "COSMOS 2251 DEB", "OBJECT_ID": "1993-036CM", "EPOCH": "2025-12-17T21:21:21.553920", "MEAN_MOTION": 14.33726599, "ECCENTRICITY": 0.0047061, "INCLINATION": 74.0669, "RA_OF_ASC_NODE": 43.3765, "ARG_OF_PERICENTER": 63.6391, "MEAN_ANOMALY": 113.5022, "EPHEMERIS_TYPE": 0, "CLASSIFICATION_TYPE": "U", "NORAD_CAT_ID": 33844, "ELEMENT_SET_NO": 999, "REV_AT_EPOCH": 87799, "BSTAR": 0.00029203189, "MEAN_MOTION_DOT": 7.96e-06, "MEAN_MOTION_DDOT": 0}, "tle": {"line1": "1 33844U 93036CM  25351.88983280  .00000796  00000+0  29203-3 0  9995", "line2": "2 33844  74.0669  43.3765 0047061  63.6391 113.5022 14.33726599877993"}}, "geometry": {"type": "Point", "coordinates": [158.32464464351224, 72.41217554634856]}}, {"type": "Feature", "properties": {"norad_id": 33848, "name": "COSMOS 2251 DEB", "group": "cosmos-2251-debris", "lat": 52.921015888200074, "lon": 145.045100741252, "alt_km": 735.6510454724439, "timestamp": "2025-12-18T07:01:54.982338+00:00", "meta": {"OBJECT_NAME": "COSMOS 2251 DEB", "OBJECT_ID": "1993-036CR", "EPOCH": "2025-12-17T17:58:56.712864", "MEAN_MOTION": 14.44094854, "ECCENTRICITY": 0.00413968, "INCLINATION": 74.0314, "RA_OF_ASC_NODE": 348.3217, "ARG_OF_PERICENTER": 42.6149, "MEAN_ANOMALY": 135.2012, "EPHEMERIS_TYPE": 0, "CLASSIFICATION_TYPE": "U", "NORAD_CAT_ID": 33848, "ELEMENT_SET_NO": 999, "REV_AT_EPOCH": 87903, "BSTAR": 0.00082326729, "MEAN_MOTION_DOT": 2.823e-05, "MEAN_MOTION_DDOT": 0}, "tle": {"line1": "1 33848U 93036CR  25351.74926751  .00002823  00000+0  82327-3 0  9993", "line2": "2 33848  74.0314 348.3217 0041396  42.6149 135.2012 14.44094854879038"}}, "geometry": {"type": "Point", "coordinates": [145.045100741252, 52.921015888200074]}}, {"type": "Feature", "properties": {"norad_id": 33892, "name": "COSMOS 2251 DEB", "group": "cosmos-2251-debris", "lat": -7.01119543654803, "lon": 89.87908877538742, "alt_km": 868.1778051047559, "timestamp": "2025-12-18T07:01:54.982349+00:00", "meta": {"OBJECT_NAME": "COSMOS 2251 DEB", "OBJECT_ID": "1993-036CV", "EPOCH": "2025-12-17T18:08:44.008224", "MEAN_MOTION": 14.23356619, "ECCENTRICITY": 0.01125433, "INCLINATION": 73.8033, "RA_OF_ASC_NODE": 92.9067, "ARG_OF_PERICENTER": 123.1697, "MEAN_ANOMALY": 0.4316, "EPHEMERIS_TYPE": 0, "CLASSIFICATION_TYPE": "U", "NORAD_CAT_ID": 33892, "ELEMENT_SET_NO": 999, "REV_AT_EPOCH": 87026, "BSTAR": 0.00052094837, "MEAN_MOTION_DOT": 1.235e-05, "MEAN_MOTION_DDOT": 0}, "tle": {"line1": "1 33892U 93036CV  25351.75606491  .00001235  00000+0  52095-3 0  9994", "line2": "2 33892  73.8033  92.9067 0112543 123.1697   0.4316 14.23356619870266"}}, "geometry": {"type": "Point", "coordinates": [89.87908877538742, -7.01119543654803]}}, {"type": "Feature", "properties": {"norad_id": 33894, "name": "COSMOS 2251 DEB", "group": "cosmos-2251-debris", "lat": 30.37000795115067, "lon": -9.683719168647258, "alt_km": 1460.345605856147, "timestamp": "2025-12-18T07:01:54.982360+00:00", "meta": {"OBJECT_NAME": "COSMOS 2251 DEB", "OBJECT_ID": "1993-036CX", "EPOCH": "2025-12-16T23:58:28.001280", "MEAN_MOTION": 13.21315162, "ECCENTRICITY": 0.05793568, "INCLINATION": 73.767, "RA_OF_ASC_NODE": 342.4883, "ARG_OF_PERICENTER": 261.3454, "MEAN_ANOMALY": 92.1624, "EPHEMERIS_TYPE": 0, "CLASSIFICATION_TYPE": "U", "NORAD_CAT_ID": 33894, "ELEMENT_SET_NO": 999, "REV_AT_EPOCH": 80764, "BSTAR": 0.00077215059, "MEAN_MOTION_DOT": 7.45e-06, "MEAN_MOTION_DDOT": 0}, "tle": {"line1": "1 33894U 93036CX  25350.99893520  .00000745  00000+0  77215-3 0  9998", "line2": "2 33894  73.7670 342.4883 0579356 261.3454  92.1624 13.21315162807645"}}, "geometry": {"type": "Point", "coordinates": [-9.683719168647258, 30.37000795115067]}}, {"type": "Feature", "properties": {"norad_id": 33896, "name": "COSMOS 2251 DEB", "group": "cosmos-2251-debris", "lat": -21.768158536816177, "lon": 139.9201814863559, "alt_km": 745.6296319511503, "timestamp": "2025-12-18T07:01:54.982370+00:00", "meta": {"OBJECT_NAME": "COSMOS 2251 DEB", "OBJECT_ID": "1993-036CZ", "EPOCH": "2025-12-17T21:33:31.149216", "MEAN_MOTION": 14.19051156, "ECCENTRICITY": 0.01266591, "INCLINATION": 73.7661, "RA_OF_ASC_NODE": 147.3178, "ARG_OF_PERICENTER": 322.2136, "MEAN_ANOMALY": 159.0983, "EPHEMERIS_TYPE": 0, "CLASSIFICATION_TYPE": "U", "NORAD_CAT_ID": 33896, "ELEMENT_SET_NO": 999, "REV_AT_EPOCH": 86813, "BSTAR": 0.00039251566, "MEAN_MOTION_DOT": 8.6e-06, "MEAN_MOTION_DDOT": 0}, "tle": {"line1": "1 33896U 93036CZ  25351.89827719  .00000860  00000+0  39252-3 0  9994", "line2": "2 33896  73.7661 147.3178 0126659 322.2136 159.0983 14.19051156868134"}}, "geometry": {"type": "Point", "coordinates": [139.9201814863559, -21.768158536816177]}}, {"type": "Feature", "properties": {"norad_id": 33899, "name": "COSMOS 2251 DEB", "group": "cosmos-2251-debris", "lat": 57.65294760312262, "lon": -131.7163211389995, "alt_km": 645.2767192515603, "timestamp": "2025-12-18T07:01:54.982381+00:00", "meta": {"OBJECT_NAME": "COSMOS 2251 DEB", "OBJECT_ID": "1993-036DC", "EPOCH": "2025-12-17T16:23:16.861056", "MEAN_MOTION": 14.61234045, "ECCENTRICITY": 0.00564276, "INCLINATION": 74.0545, "RA_OF_ASC_NODE": 76.2844, "ARG_OF_PERICENTER": 137.5481, "MEAN_ANOMALY": 12.7035, "EPHEMERIS_TYPE": 0, "CLASSIFICATION_TYPE": "U", "NORAD_CAT_ID": 33899, "ELEMENT_SET_NO": 999, "REV_AT_EPOCH": 88911, "BSTAR": 0.00067594308, "MEAN_MOTION_DOT": 3.38e-05, "MEAN_MOTION_DDOT": 0}, "tle": {"line1": "1 33899U 93036DC  25351.68283404  .00003380  00000+0  67594-3 0  9991", "line2": "2 33899  74.0545  76.2844 0056427 137.5481  12.7035 14.61234045889118"}}, "geometry": {"type": "Point", "coordinates": [-131.7163211389995, 57.65294760312262]}}, {"type": "Feature", "properties": {"norad_id": 33900, "name": "COSMOS 2251 DEB", "group": "cosmos-2251-debris", "lat": 72.72480689178141, "lon": 102.12995071685802, "alt_km": 667.0039047240043, "timestamp": "2025-12-18T07:01:54.982391+00:00", "meta": {"OBJECT_NAME": "COSMOS 2251 DEB", "OBJECT_ID": "1993-036DD", "EPOCH": "2025-12-17T18:14:24.265248", "MEAN_MOTION": 14.58364204, "ECCENTRICITY": 0.00466124, "INCLINATION": 74.0182, "RA_OF_ASC_NODE": 350.2976, "ARG_OF_PERICENTER": 140.9777, "MEAN_ANOMALY": 38.8622, "EPHEMERIS_TYPE": 0, "CLASSIFICATION_TYPE": "U", "NORAD_CAT_ID": 33900, "ELEMENT_SET_NO": 999, "REV_AT_EPOCH": 89109, "BSTAR": 0.00030757598, "MEAN_MOTION_DOT": 1.416e-05, "MEAN_MOTION_DDOT": 0}, "tle": {"line1": "1 33900U 93036DD  25351.76000307  .00001416  00000+0  30758-3 0  9992", "line2": "2 33900  74.0182 350.2976 0046612 140.9777  38.8622 14.58364204891098"}}, "geometry": {"type": "Point", "coordinates": [102.12995071685802, 72.72480689178141]}}, {"type": "Feature", "properties": {"norad_id": 33901, "name": "COSMOS 2251 DEB", "group": "cosmos-2251-debris", "lat": 24.60672169926015, "lon": -150.1271360554923, "alt_km": 494.9039302596684, "timestamp": "2025-12-18T07:01:54.982402+00:00", "meta": {"OBJECT_NAME": "COSMOS 2251 DEB", "OBJECT_ID": "1993-036DE", "EPOCH": "2025-12-17T20:51:16.800480", "MEAN_MOTION": 15.16490513, "ECCENTRICITY": 0.00307418, "INCLINATION": 73.7748, "RA_OF_ASC_NODE": 38.4348, "ARG_OF_PERICENTER": 170.2318, "MEAN_ANOMALY": 189.9481, "EPHEMERIS_TYPE": 0, "CLASSIFICATION_TYPE": "U", "NORAD_CAT_ID": 33901, "ELEMENT_SET_NO": 999, "REV_AT_EPOCH": 89591, "BSTAR": 0.0022122008, "MEAN_MOTION_DOT": 0.0004384, "MEAN_MOTION_DDOT": 0}, "tle": {"line1": "1 33901U 93036DE  25351.86894445  .00043840  00000+0  22122-2 0  9990", "line2": "2 33901  73.7748  38.4348 0030741 170.2318 189.9481 15.16490513895918"}}, "geometry": {"type": "Point", "coordinates": [-150.1271360554923, 24.60672169926015]}}]}